{"type": "FeatureCollection", "features": [ {"type": "Feature", "properties": {"norad_id": 33867, "name": "IRIDIUM 33 DEB", "group": "iridium-33-debris", "lat": -63.77470788009056, "lon": -18.941925099028637, "alt_km": 364.29386734318996, "timestamp": "2025-12-15T20:48:54.269501+00:00", "meta": {"OBJECT_NAME": "IRIDIUM 33 DEB", "OBJECT_ID": "1997-051AL", "EPOCH": "2025-12-14T23:42:29.137536", "MEAN_MOTION": 15.72109252, "ECCENTRICITY": 0.00134585, "INCLINATION": 86.3648, "RA_OF_ASC_NODE": 348.9333, "ARG_OF_PERICENTER": 89.1802, "MEAN_ANOMALY": 271.1011, "EPHEMERIS_TYPE": 0, "CLASSIFICATION_TYPE": "U", "NORAD_CAT_ID": 33867, "ELEMENT_SET_NO": 999, "REV_AT_EPOCH": 89546, "BSTAR": 0.0054513416, "MEAN_MOTION_DOT": 0.00783723, "MEAN_MOTION_DDOT": 0}, "tle": {"line1": "1 33867U 97051AL  25348.98783724  .00783723  00000+0  54513-2 0  9998", "line2": "2 33867  86.3648 348.9333 0013458  89.1802 271.1011 15.72109252895465"}}, "geometry": {"type": "Point", "coordinates": [-18.941925099028637, -63.77470788009056]}}, {"type": "Feature", "properties": {"norad_id": 33870, "name": "IRIDIUM 33 DEB", "group": "iridium-33-debris", "lat": 34.753822765730476, "lon": 59.44129171411821, "alt_km": 747.473915677735, "timestamp": "2025-12-15T20:48:54.269512+00:00", "meta": {"OBJECT_NAME": "IRIDIUM 33 DEB", "OBJECT_ID": "1997-051AP", "EPOCH": "2025-12-14T16:59:01.430880", "MEAN_MOTION": 14.45864658, "ECCENTRICITY": 0.00216872, "INCLINATION": 86.3749, "RA_OF_ASC_NODE": 57.4172, "ARG_OF_PERICENTER": 171.7599, "MEAN_ANOMALY": 311.138, "EPHEMERIS_TYPE": 0, "CLASSIFICATION_TYPE": "U", "NORAD_CAT_ID": 33870, "ELEMENT_SET_NO": 999, "REV_AT_EPOCH": 88165, "BSTAR": 0.00071367295, "MEAN_MOTION_DOT": 2.561e-05, "MEAN_MOTION_DDOT": 0}, "tle": {"line1": "1 33870U 97051AP  25348.70765545  .00002561  00000+0  71367-3 0  9994", "line2": "2 33870  86.3749  57.4172 0021687 171.7599 311.1380 14.45864658881655"}}, "geometry": {"type": "Point", "coordinates": [59.44129171411821, 34.753822765730476]}}, {"type": "Feature", "properties": {"norad_id": 33881, "name": "IRIDIUM 33 DEB", "group": "iridium-33-debris", "lat": 23.596226181750126, "lon": 106.96490855881896, "alt_km": 737.2308305407241, "timestamp": "2025-12-15T20:48:54.269522+00:00", "meta": {"OBJECT_NAME": "IRIDIUM 33 DEB", "OBJECT_ID": "1997-051BA", "EPOCH": "2025-12-14T20:33:01.304640", "MEAN_MOTION": 14.56621257, "ECCENTRICITY": 0.00614848, "INCLINATION": 86.3857, "RA_OF_ASC_NODE": 105.8223, "ARG_OF_PERICENTER": 167.8344, "MEAN_ANOMALY": 318.0896, "EPHEMERIS_TYPE": 0, "CLASSIFICATION_TYPE": "U", "NORAD_CAT_ID": 33881, "ELEMENT_SET_NO": 999, "REV_AT_EPOCH": 87531, "BSTAR": 0.0013201502, "MEAN_MOTION_DOT": 6.061e-05, "MEAN_MOTION_DDOT": 0}, "tle": {"line1": "1 33881U 97051BA  25348.85626510  .00006061  00000+0  13202-2 0  9992", "line2": "2 33881  86.3857 105.8223 0061484 167.8344 318.0896 14.56621257875317"}}, "geometry": {"type": "Point", "coordinates": [106.96490855881896, 23.596226181750126]}}, {"type": "Feature", "properties": {"norad_id": 33884, "name": "IRIDIUM 33 DEB", "group": "iridium-33-debris", "lat": -25.3047467056783, "lon": -169.87300026776114, "alt_km": 644.9240293803268, "timestamp": "2025-12-15T20:48:54.269532+00:00", "meta": {"OBJECT_NAME": "IRIDIUM 33 DEB", "OBJECT_ID": "1997-051BD", "EPOCH": "2025-12-14T20:17:18.023136", "MEAN_MOTION": 14.77479799, "ECCENTRICITY": 0.00094376, "INCLINATION": 86.37, "RA_OF_ASC_NODE": 8.8682, "ARG_OF_PERICENTER": 316.0061, "MEAN_ANOMALY": 217.219, "EPHEMERIS_TYPE": 0, "CLASSIFICATION_TYPE": "U", "NORAD_CAT_ID": 33884, "ELEMENT_SET_NO": 999, "REV_AT_EPOCH": 88878, "BSTAR": 0.0011989967, "MEAN_MOTION_DOT": 8.576e-05, "MEAN_MOTION_DDOT": 0}, "tle": {"line1": "1 33884U 97051BD  25348.84534749  .00008576  00000+0  11990-2 0  9991", "line2": "2 33884  86.3700   8.8682 0009437 316.0061 217.2190 14.77479799888789"}}, "geometry": {"type": "Point", "coordinates": [-169.87300026776114, -25.3047467056783]}}, {"type": "Feature", "properties": {"norad_id": 33886, "name": "IRIDIUM 33 DEB", "group": "iridium-33-debris", "lat": 25.388689731723705, "lon": 67.632794049352, "alt_km": 778.8783049007634, "timestamp": "2025-12-15T20:48:54.269543+00:00", "meta": {"OBJECT_NAME": "IRIDIUM 33 DEB", "OBJECT_ID": "1997-051BF", "EPOCH": "2025-12-14T16:47:35.123712", "MEAN_MOTION": 14.36054475, "ECCENTRICITY": 0.00124398, "INCLINATION": 86.3831, "RA_OF_ASC_NODE": 66.4039, "ARG_OF_PERICENTER": 234.6873, "MEAN_ANOMALY": 238.451, "EPHEMERIS_TYPE": 0, "CLASSIFICATION_TYPE": "U", "NORAD_CAT_ID": 33886, "ELEMENT_SET_NO": 999, "REV_AT_EPOCH": 88080, "BSTAR": 0.00022824918, "MEAN_MOTION_DOT": 6.83e-06, "MEAN_MOTION_DDOT": 0}, "tle": {"line1": "1 33886U 97051BF  25348.69971208  .00000683  00000+0  22825-3 0  9992", "line2": "2 33886  86.3831  66.4039 0012439 234.6873 238.4510 14.36054475880805"}}, "geometry": {"type": "Point", "coordinates": [67.632794049352, 25.388689731723705]}}, {"type": "Feature", "properties": {"norad_id": 33887, "name": "IRIDIUM 33 DEB", "group": "iridium-33-debris", "lat": -25.126876416098, "lon": 0.30759032348041226, "alt_km": 775.0470412721334, "timestamp": "2025-12-15T20:48:54.269553+00:00", "meta": {"OBJECT_NAME": "IRIDIUM 33 DEB", "OBJECT_ID": "1997-051BG", "EPOCH": "2025-12-14T19:01:16.152384", "MEAN_MOTION": 14.37222878, "ECCENTRICITY": 0.00046235, "INCLINATION": 86.3044, "RA_OF_ASC_NODE": 2.5076, "ARG_OF_PERICENTER": 217.7638, "MEAN_ANOMALY": 319.8972, "EPHEMERIS_TYPE": 0, "CLASSIFICATION_TYPE": "U", "NORAD_CAT_ID": 33887, "ELEMENT_SET_NO": 999, "REV_AT_EPOCH": 88194, "BSTAR": 0.0001690057, "MEAN_MOTION_DOT": 5.23e-06, "MEAN_MOTION_DDOT": 0}, "tle": {"line1": "1 33887U 97051BG  25348.79254806  .00000523  00000+0  16901-3 0  9993", "line2": "2 33887  86.3044   2.5076 0004623 217.7638 319.8972 14.37222878881948"}}, "geometry": {"type": "Point", "coordinates": [0.30759032348041226, -25.126876416098]}}, {"type": "Feature", "properties": {"norad_id": 33953, "name": "IRIDIUM 33 DEB", "group": "iridium-33-debris", "lat": 33.78176812676365, "lon": 54.84607216150295, "alt_km": 699.5001902564254, "timestamp": "2025-12-15T20:48:54.269563+00:00", "meta": {"OBJECT_NAME": "IRIDIUM 33 DEB", "OBJECT_ID": "1997-051BN", "EPOCH": "2025-12-14T22:21:56.916000", "MEAN_MOTION": 14.55350804, "ECCENTRICITY": 0.00182766, "INCLINATION": 86.3848, "RA_OF_ASC_NODE": 52.8279, "ARG_OF_PERICENTER": 96.2231, "MEAN_ANOMALY": 80.3232, "EPHEMERIS_TYPE": 0, "CLASSIFICATION_TYPE": "U", "NORAD_CAT_ID": 33953, "ELEMENT_SET_NO": 999, "REV_AT_EPOCH": 88335, "BSTAR": 0.00077859673, "MEAN_MOTION_DOT": 3.405e-05, "MEAN_MOTION_DDOT": 0}, "tle": {"line1": "1 33953U 97051BN  25348.93190875  .00003405  00000+0  77860-3 0  9991", "line2": "2 33953  86.3848  52.8279 0018276  96.2231  80.3232 14.55350804883352"}}, "geometry": {"type": "Point", "coordinates": [54.84607216150295, 33.78176812676365]}}, {"type": "Feature", "properties": {"norad_id": 33960, "name": "IRIDIUM 33 DEB", "group": "iridium-33-debris", "lat": 4.721853251171175, "lon": 107.72929474613011, "alt_km": 617.5644827850938, "timestamp": "2025-12-15T20:48:54.269574+00:00", "meta": {"OBJECT_NAME": "IRIDIUM 33 DEB", "OBJECT_ID": "1997-051BV", "EPOCH": "2025-12-14T14:06:04.377888", "MEAN_MOTION": 14.85312207, "ECCENTRICITY": 0.00075249, "INCLINATION": 86.2524, "RA_OF_ASC_NODE": 288.6431, "ARG_OF_PERICENTER": 59.4902, "MEAN_ANOMALY": 117.0305, "EPHEMERIS_TYPE": 0, "CLASSIFICATION_TYPE": "U", "NORAD_CAT_ID": 33960, "ELEMENT_SET_NO": 999, "REV_AT_EPOCH": 88894, "BSTAR": 0.0024750615, "MEAN_MOTION_DOT": 0.00021341, "MEAN_MOTION_DDOT": 0}, "tle": {"line1": "1 33960U 97051BV  25348.58755067  .00021341  00000+0  24751-2 0  9999", "line2": "2 33960  86.2524 288.6431 0007524  59.4902 117.0305 14.85312207888946"}}, "geometry": {"type": "Point", "coordinates": [107.72929474613011, 4.721853251171175]}}, {"type": "Feature", "properties": {"norad_id": 33966, "name": "IRIDIUM 33 DEB", "group": "iridium-33-debris", "lat": 83.40863246183181, "lon": -168.40338624283334, "alt_km": 718.7651913951404, "timestamp": "2025-12-15T20:48:54.269584+00:00", "meta": {"OBJECT_NAME": "IRIDIUM 33 DEB", "OBJECT_ID": "1997-051CB", "EPOCH": "2025-12-14T22:00:02.792736", "MEAN_MOTION": 14.49603787, "ECCENTRICITY": 0.00076878, "INCLINATION": 86.3927, "RA_OF_ASC_NODE": 45.0932, "ARG_OF_PERICENTER": 180.8005, "MEAN_ANOMALY": 357.2153, "EPHEMERIS_TYPE": 0, "CLASSIFICATION_TYPE": "U", "NORAD_CAT_ID": 33966, "ELEMENT_SET_NO": 999, "REV_AT_EPOCH": 88473, "BSTAR": 0.00045591516, "MEAN_MOTION_DOT": 1.77e-05, "MEAN_MOTION_DDOT": 0}, "tle": {"line1": "1 33966U 97051CB  25348.91669899  .00001770  00000+0  45592-3 0  9990", "line2": "2 33966  86.3927  45.0932 0007687 180.8005 357.2153 14.49603787884732"}}, "geometry": {"type": "Point", "coordinates": [-168.40338624283334, 83.40863246183181]}}, {"type": "Feature", "properties": {"norad_id": 34071, "name": "IRIDIUM 33 DEB", "group": "iridium-33-debris", "lat": 19.209183638241484, "lon": -164.80634276024966, "alt_km": 724.2988771336759, "timestamp": "2025-12-15T20:48:54.269594+00:00", "meta": {"OBJECT_NAME": "IRIDIUM 33 DEB", "OBJECT_ID": "1997-051CE", "EPOCH": "2025-12-14T19:13:29.446464", "MEAN_MOTION": 14.49475642, "ECCENTRICITY": 0.00099741, "INCLINATION": 86.3459, "RA_OF_ASC_NODE": 16.9327, "ARG_OF_PERICENTER": 102.0992, "MEAN_ANOMALY": 258.133, "EPHEMERIS_TYPE": 0, "CLASSIFICATION_TYPE": "U", "NORAD_CAT_ID": 34071, "ELEMENT_SET_NO": 999, "REV_AT_EPOCH": 88364, "BSTAR": 0.00060515651, "MEAN_MOTION_DOT": 2.338e-05, "MEAN_MOTION_DDOT": 0}, "tle": {"line1": "1 34071U 97051CE  25348.80103526  .00002338  00000+0  60516-3 0  9990", "line2": "2 34071  86.3459  16.9327 0009974 102.0992 258.1330 14.49475642883649"}}, "geometry": {"type": "Point", "coordinates": [-164.80634276024966, 19.209183638241484]}}]}